CCSDS_OMM_VERS = 2.0
CREATION_DATE  = 
ORIGINATOR     = 

OBJECT_NAME    = YOTSUBA-KULOVER
OBJECT_ID      = 1998-067XN
CENTER_NAME    = EARTH
REF_FRAME      = TEME
TIME_SYSTEM    = UTC
MEAN_ELEMENT_THEORY = SGP/SGP4

EPOCH          = 2026-03-06T05:25:58.352448
MEAN_MOTION    = 15.78891358
ECCENTRICITY   = .0005861
INCLINATION    = 51.6209
RA_OF_ASC_NODE = 75.2348
ARG_OF_PERICENTER = 46.1481
MEAN_ANOMALY   = 314.0003

EPHEMERIS_TYPE = 0
CLASSIFICATION_TYPE = U
NORAD_CAT_ID   = 65941
ELEMENT_SET_NO = 999
REV_AT_EPOCH   = 2295
BSTAR          = .1121943E-2
MEAN_MOTION_DOT = .207091E-2
MEAN_MOTION_DDOT = 0

CCSDS_OMM_VERS = 2.0
CREATION_DATE  = 
ORIGINATOR     = 

OBJECT_NAME    = E-KAGAKU-1
OBJECT_ID      = 1998-067XQ
CENTER_NAME    = EARTH
REF_FRAME      = TEME
TIME_SYSTEM    = UTC
MEAN_ELEMENT_THEORY = SGP/SGP4

EPOCH          = 2026-03-06T07:02:31.124256
MEAN_MOTION    = 15.78621403
ECCENTRICITY   = .00061761
INCLINATION    = 51.6235
RA_OF_ASC_NODE = 74.9503
ARG_OF_PERICENTER = 51.7621
MEAN_ANOMALY   = 308.3935

EPHEMERIS_TYPE = 0
CLASSIFICATION_TYPE = U
NORAD_CAT_ID   = 65943
ELEMENT_SET_NO = 999
REV_AT_EPOCH   = 2296
BSTAR          = .11184453E-2
MEAN_MOTION_DOT = .203884E-2
MEAN_MOTION_DDOT = 0

CCSDS_OMM_VERS = 2.0
CREATION_DATE  = 
ORIGINATOR     = 

OBJECT_NAME    = HRC MONOBLOCK CAMERA
OBJECT_ID      = 1998-067XR
CENTER_NAME    = EARTH
REF_FRAME      = TEME
TIME_SYSTEM    = UTC
MEAN_ELEMENT_THEORY = SGP/SGP4

EPOCH          = 2026-03-06T08:57:49.494528
MEAN_MOTION    = 15.61775816
ECCENTRICITY   = .00035406
INCLINATION    = 51.6273
RA_OF_ASC_NODE = 82.2641
ARG_OF_PERICENTER = 77.2259
MEAN_ANOMALY   = 282.9130

EPHEMERIS_TYPE = 0
CLASSIFICATION_TYPE = U
NORAD_CAT_ID   = 66052
ELEMENT_SET_NO = 999
REV_AT_EPOCH   = 2187
BSTAR          = .62034992E-3
MEAN_MOTION_DOT = .54605E-3
MEAN_MOTION_DDOT = 0

CCSDS_OMM_VERS = 2.0
CREATION_DATE  = 
ORIGINATOR     = 

OBJECT_NAME    = HTV-X1
OBJECT_ID      = 2025-241A
CENTER_NAME    = EARTH
REF_FRAME      = TEME
TIME_SYSTEM    = UTC
MEAN_ELEMENT_THEORY = SGP/SGP4

EPOCH          = 2026-03-06T13:04:21.510624
MEAN_MOTION    = 15.48477653
ECCENTRICITY   = .00081171
INCLINATION    = 51.6317
RA_OF_ASC_NODE = 87.9051
ARG_OF_PERICENTER = 163.3368
MEAN_ANOMALY   = 196.7888

EPHEMERIS_TYPE = 0
CLASSIFICATION_TYPE = U
NORAD_CAT_ID   = 66174
ELEMENT_SET_NO = 999
REV_AT_EPOCH   = 55447
BSTAR          = .18044032E-3
MEAN_MOTION_DOT = .9332E-4
MEAN_MOTION_DDOT = 0

CCSDS_OMM_VERS = 2.0
CREATION_DATE  = 
ORIGINATOR     = 

OBJECT_NAME    = SZ-21 MODULE
OBJECT_ID      = 2025-246C
CENTER_NAME    = EARTH
REF_FRAME      = TEME
TIME_SYSTEM    = UTC
MEAN_ELEMENT_THEORY = SGP/SGP4

EPOCH          = 2026-03-06T12:11:03.500160
MEAN_MOTION    = 15.68252686
ECCENTRICITY   = .00014339
INCLINATION    = 41.4735
RA_OF_ASC_NODE = 222.9439
ARG_OF_PERICENTER = 292.6372
MEAN_ANOMALY   = 67.4317

EPHEMERIS_TYPE = 0
CLASSIFICATION_TYPE = U
NORAD_CAT_ID   = 66515
ELEMENT_SET_NO = 999
REV_AT_EPOCH   = 1757
BSTAR          = .36494457E-3
MEAN_MOTION_DOT = .4195E-3
MEAN_MOTION_DDOT = 0

CCSDS_OMM_VERS = 2.0
CREATION_DATE  = 
ORIGINATOR     = 

OBJECT_NAME    = SHENZHOU-22
OBJECT_ID      = 2025-272A
CENTER_NAME    = EARTH
REF_FRAME      = TEME
TIME_SYSTEM    = UTC
MEAN_ELEMENT_THEORY = SGP/SGP4

EPOCH          = 2026-03-06T20:03:32.076288
MEAN_MOTION    = 15.60495557
ECCENTRICITY   = .000695
INCLINATION    = 41.4663
RA_OF_ASC_NODE = 225.5243
ARG_OF_PERICENTER = 255.9346
MEAN_ANOMALY   = 104.0720

EPHEMERIS_TYPE = 0
CLASSIFICATION_TYPE = U
NORAD_CAT_ID   = 66645
ELEMENT_SET_NO = 999
REV_AT_EPOCH   = 26875
BSTAR          = .30829E-3
MEAN_MOTION_DOT = .25906E-3
MEAN_MOTION_DDOT = 0

CCSDS_OMM_VERS = 2.0
CREATION_DATE  = 
ORIGINATOR     = 

OBJECT_NAME    = SOYUZ-MS 28
OBJECT_ID      = 2025-275A
CENTER_NAME    = EARTH
REF_FRAME      = TEME
TIME_SYSTEM    = UTC
MEAN_ELEMENT_THEORY = SGP/SGP4

EPOCH          = 2026-03-06T13:04:21.510624
MEAN_MOTION    = 15.48477653
ECCENTRICITY   = .00081171
INCLINATION    = 51.6317
RA_OF_ASC_NODE = 87.9051
ARG_OF_PERICENTER = 163.3368
MEAN_ANOMALY   = 196.7888

EPHEMERIS_TYPE = 0
CLASSIFICATION_TYPE = U
NORAD_CAT_ID   = 66664
ELEMENT_SET_NO = 999
REV_AT_EPOCH   = 55452
BSTAR          = .18044032E-3
MEAN_MOTION_DOT = .9332E-4
MEAN_MOTION_DDOT = 0

CCSDS_OMM_VERS = 2.0
CREATION_DATE  = 
ORIGINATOR     = 

OBJECT_NAME    = DUPLEX
OBJECT_ID      = 1998-067XS
CENTER_NAME    = EARTH
REF_FRAME      = TEME
TIME_SYSTEM    = UTC
MEAN_ELEMENT_THEORY = SGP/SGP4

EPOCH          = 2026-03-06T10:32:36.618144
MEAN_MOTION    = 15.55966204
ECCENTRICITY   = .00021773
INCLINATION    = 51.6289
RA_OF_ASC_NODE = 85.7046
ARG_OF_PERICENTER = 98.7594
MEAN_ANOMALY   = 261.3644

EPHEMERIS_TYPE = 0
CLASSIFICATION_TYPE = U
NORAD_CAT_ID   = 66906
ELEMENT_SET_NO = 999
REV_AT_EPOCH   = 1462
BSTAR          = .45867993E-3
MEAN_MOTION_DOT = .32127E-3
MEAN_MOTION_DDOT = 0

CCSDS_OMM_VERS = 2.0
CREATION_DATE  = 
ORIGINATOR     = 

OBJECT_NAME    = ISS OBJECT XT
OBJECT_ID      = 1998-067XT
CENTER_NAME    = EARTH
REF_FRAME      = TEME
TIME_SYSTEM    = UTC
MEAN_ELEMENT_THEORY = SGP/SGP4

EPOCH          = 2026-03-06T06:28:51.010176
MEAN_MOTION    = 15.68035860
ECCENTRICITY   = .00046743
INCLINATION    = 51.6248
RA_OF_ASC_NODE = 83.0631
ARG_OF_PERICENTER = 56.5604
MEAN_ANOMALY   = 303.5839

EPHEMERIS_TYPE = 0
CLASSIFICATION_TYPE = U
NORAD_CAT_ID   = 66907
ELEMENT_SET_NO = 999
REV_AT_EPOCH   = 1464
BSTAR          = .1331197E-2
MEAN_MOTION_DOT = .153072E-2
MEAN_MOTION_DDOT = 0

CCSDS_OMM_VERS = 2.0
CREATION_DATE  = 
ORIGINATOR     = 

OBJECT_NAME    = ISS OBJECT XU
OBJECT_ID      = 1998-067XU
CENTER_NAME    = EARTH
REF_FRAME      = TEME
TIME_SYSTEM    = UTC
MEAN_ELEMENT_THEORY = SGP/SGP4

EPOCH          = 2026-03-06T07:58:22.188864
MEAN_MOTION    = 15.68155385
ECCENTRICITY   = .0004715
INCLINATION    = 51.6249
RA_OF_ASC_NODE = 82.7244
ARG_OF_PERICENTER = 58.9313
MEAN_ANOMALY   = 301.2145

EPHEMERIS_TYPE = 0
CLASSIFICATION_TYPE = U
NORAD_CAT_ID   = 66908
ELEMENT_SET_NO = 999
REV_AT_EPOCH   = 1465
BSTAR          = .13221278E-2
MEAN_MOTION_DOT = .152767E-2
MEAN_MOTION_DDOT = 0

CCSDS_OMM_VERS = 2.0
CREATION_DATE  = 
ORIGINATOR     = 

OBJECT_NAME    = SILVERSAT
OBJECT_ID      = 1998-067XV
CENTER_NAME    = EARTH
REF_FRAME      = TEME
TIME_SYSTEM    = UTC
MEAN_ELEMENT_THEORY = SGP/SGP4

EPOCH          = 2026-03-06T06:36:55.814400
MEAN_MOTION    = 15.70734240
ECCENTRICITY   = .00055309
INCLINATION    = 51.6242
RA_OF_ASC_NODE = 82.3461
ARG_OF_PERICENTER = 54.5981
MEAN_ANOMALY   = 305.5533

EPHEMERIS_TYPE = 0
CLASSIFICATION_TYPE = U
NORAD_CAT_ID   = 66909
ELEMENT_SET_NO = 999
REV_AT_EPOCH   = 1465
BSTAR          = .14660588E-2
MEAN_MOTION_DOT = .189452E-2
MEAN_MOTION_DDOT = 0

CCSDS_OMM_VERS = 2.0
CREATION_DATE  = 
ORIGINATOR     = 

OBJECT_NAME    = ISS OBJECT XW
OBJECT_ID      = 1998-067XW
CENTER_NAME    = EARTH
REF_FRAME      = TEME
TIME_SYSTEM    = UTC
MEAN_ELEMENT_THEORY = SGP/SGP4

EPOCH          = 2026-03-06T10:54:58.716864
MEAN_MOTION    = 15.67532901
ECCENTRICITY   = .0005009
INCLINATION    = 51.6239
RA_OF_ASC_NODE = 82.0383
ARG_OF_PERICENTER = 67.5902
MEAN_ANOMALY   = 292.5625

EPHEMERIS_TYPE = 0
CLASSIFICATION_TYPE = U
NORAD_CAT_ID   = 66910
ELEMENT_SET_NO = 999
REV_AT_EPOCH   = 1467
BSTAR          = .12172159E-2
MEAN_MOTION_DOT = .136808E-2
MEAN_MOTION_DDOT = 0

